#dP2024  8  7  0  0  0.00000000      96 __u+U IGS20 FIT  IAC
## 2326 259200.00000000   900.00000000 60529 0.0000000000000
+  131   C01C02C03C04C05C06C07C08C09C10C11C12C13C14C16C19C20
+        C21C22C23C24C25C26C27C28C29C30C32C33C34C35C36C37C38
+        C39C40C41C42C43C44C45C59C60C62E02E03E04E05E06E07E08
+        E09E10E11E12E13E14E15E18E19E21E24E25E26E27E29E30E31
+        E33E34E36G01G02G03G04G05G06G07G08G09G10G11G12G13G14
+        G15G16G17G18G19G20G21G22G23G24G25G26G27G28G29G30G31
+        G32J02J03J07R01R02R03R04R05R06R07R08R09R10R11R12R14
+        R15R16R17R18R19R20R21R22R23R24R25R26  0  0  0  0  0
++        17 17 17 17 16  9  9  9  9  9  9  9  8  9  9  7  7
++         7  7  7  7  7  7  7  7  7  7  7  7  7  7  7  7  8
++         8  8  7  7  7  7  7  0 17 17  4  4  5  4  5  4  4
++         4  4  4  4  5  4  4  4  4  4  4  4  4  4  5  4  5
++         4  4  4  6  4  4  4  4  4  4  4  4  4  4  4  4  4
++         4  4  4  4  4  4  4  4  4  4  4  4  4  3  4  4  4
++         4 10 11 17  7  6  6  6  6 15  6  6  6 15  6  6  6
++         6  6  6  6  7  7  6  6 15  6  8  8  0  0  0  0  0
%c M  cc GPS ccc cccc cccc cccc cccc ccccc ccccc ccccc ccccc
%c cc cc ccc ccc cccc cccc cccc cccc ccccc ccccc ccccc ccccc
%f  0.0000000  0.000000000  0.00000000000  0.000000000000000
%f  0.0000000  0.000000000  0.00000000000  0.000000000000000
%i    0    0    0    0      0      0      0      0         0
%i    0    0    0    0      0      0      0      0         0
/* INFORMATION & ANALYSIS CENTER (IAC)            RAPID DATA
/* S/V CLOCKS ARE ALIGNED TO GNSS TIME                      
/* G:C1WC2W R:C1PC2P E:C1XC5X C:C2IC6I J:C1CC2S             
/* PCV:IGS20_2317 OL/AL:FES2004  NONE     YN ORB:CoN CLK:CoN
*  2024 08 07  3 30  0.00000000
PC01 -34329.559929  24454.322520   1168.343572    913.209343
PC02   4324.081300  41921.220139    426.638430    912.996707
PC03 -14849.600262  39433.486728    900.990148    688.309985
PC04 -39586.675435  14403.388150   1442.065504   -706.449620
PC05  21887.101767  36046.819344   -118.907238   -474.903917
PC06 -17914.673634  26981.039444 -27062.190222    659.278152
PC07  -8500.880484  40273.071377  -8362.040445   -483.003644
PC08   1677.445263  24879.589792  34030.610430   -397.360238
PC09  -7023.195153  25980.660289 -32100.913950   -143.523607
PC10  -2793.938035  41668.366243  -2070.372825   -113.939514
PC11  -7758.926358  21222.614181  16429.819964    700.245913
PC12 -21210.953661  18101.725967   -866.522441   -265.745378
PC13   7525.756808  28200.328732  30698.584211    438.062538
PC14   1563.401356  26987.778065   6797.557104    916.448651
PC16 -19887.126003  26366.113894 -26084.275670   -711.166773
PC19  -7857.557108 -26681.640596   2465.472729   -923.671110
PC20   3833.488251 -24084.024051 -13598.010831   -773.000820
PC21 -14413.725339   6436.548680  23013.471098   -946.430076
PC22 -15770.059162 -14189.914101  18132.072671     84.548755
PC23  24985.517938  11363.507295  -5041.972975   -810.406573
PC24 -10628.574590  13442.185584 -22027.681238    862.692435
PC25  10444.811862  17301.723302 -19259.304203    471.858869
PC26 -25117.108695   1999.839826 -11973.777206   -330.710214
PC27  23165.925321 -12314.962690   9488.029657    351.361278
PC28  18730.590749   2361.572293  20557.602512    271.220332
PC29  -1687.292344 -18814.763053 -20547.875656    318.452055
PC30  15518.278470 -22196.481074  -6707.554622   -157.026156
PC32  14397.364275  -6463.183490 -23011.006443   -694.915778
PC33   7962.271451  26631.488064  -2347.087759   -965.119099
PC34 -14322.124448  22498.184821   8220.908902    493.691679
PC35 -18605.485156  -2161.574429 -20710.089697    293.681916
PC36 -10358.372561 -17520.981485  19113.538645    154.745341
PC37  25187.956385  -1438.152615  11971.167738   -911.947631
PC38  -8860.623396  21243.071123  35377.608342    171.779416
PC39 -25064.976147  26856.000721 -20842.663806     -9.450142
PC40 -14237.625617  37819.838917 -11405.321393    -84.278798
PC41  15664.693491  14996.501101 -17506.942341   -929.475964
PC42  -5040.239986  22975.324953  15022.330681   -460.378903
PC43    806.370786  19398.362895  20037.805877     81.467828
PC44 -22740.129018  13031.325729  -9630.558959    555.781267
PC45 -24726.446171 -11683.467542   5495.360745   -113.850386
PC59      0.000000      0.000000      0.000000 999999.999999
PC60   7321.741574  41500.025890   1465.979086     -0.302641
PC62 -39593.136313  14375.046811  -1260.714378     -0.919679
PE02 -13537.472354 -25304.917164   7229.954561    149.352553
PE03  -2960.146714 -24297.927989  16650.546956   -131.998470
PE04  15667.458680   6383.142603 -24284.667213     -2.102129
PE05  11146.604359 -27420.053293   -579.750262   4772.857938
PE06  18817.035535  -4553.426345 -22405.219485    -12.786371
PE07 -18881.230180  14196.626525  17828.806558   -135.221638
PE08 -15128.933179  -7330.158531  24360.649822   -315.121856
PE09  18801.011969 -14177.403044 -17948.899068   -543.429861
PE10  29259.603794  -1716.123023   4175.620141   -646.494739
PE11  27730.530580  -8225.612841  -6291.689697   2127.008864
PE12  26313.272739   4449.533812  12788.956514  -1156.198269
PE13 -27948.093352   7890.981323   5725.702296    -23.614728
PE14  16771.253641   2859.118357  19588.134521    153.192029
PE15 -25983.470269  -4778.612074 -13347.151969   -119.395888
PE18 -14273.954449 -15288.763667 -22376.056829    404.082122
PE19   1287.085178  25304.114689 -15296.057237    415.575113
PE21  -2656.229375  20395.137684 -21280.697268   -609.676873
PE24  18095.204741  -3125.150982  23210.129785   -916.522799
PE25   3050.519989 -20133.492415  21492.831189      7.728020
PE26 -12962.260063  15960.824056  21289.949632    534.421368
PE27 -17931.550028   3356.511931 -23301.488390   -419.892493
PE29 -10953.784872  27502.363169    140.316100    -21.044689
PE30 -22417.968353 -15510.284629 -11528.891685   -585.708210
PE31  22452.416615  15434.513768  11579.994809    -31.742773
PE33   8287.274993  14586.743125  24387.153015     14.409971
PE34  -8813.766299 -14441.746184 -24293.878180   -127.015457
PE36  13567.749633 -15717.843390 -21097.505749   -265.616766
PG01  17724.383815   -601.924954  19496.642955    226.589952
PG02  -1262.774702 -14997.249137 -21388.878888   -384.005763
PG03 -11278.119538 -22272.214325  -9400.642680    489.966680
PG04  -1221.899526 -22929.531275  13243.481721    419.187674
PG05  -2337.421342  17110.528096  19972.808101   -182.356466
PG06 -26144.328115   5004.726348     96.506921    114.383309
PG07 -19591.384829  -8203.983905  16748.158823    -55.913642
PG08   5683.409419 -25593.224630  -2500.431896    305.755428
PG09 -10189.849907 -14257.486100  19853.267752    303.929164
PG10  19774.267495   5509.726396 -16828.337380    -86.793755
PG11 -19401.420938  12324.043077  13282.596072   -717.624543
PG12   7292.961522  22860.054064 -11715.499891   -528.386226
PG13 -13866.373478  22167.218442   3643.222609    669.292670
PG14 -20810.835377  -8888.106153 -14038.029313    466.623707
PG15  -2089.734178  26247.883267  -3136.080747    189.738971
PG16   7782.588063 -13924.258667  20824.400760   -215.503895
PG17 -16007.037777   1530.231873 -20753.893647    660.767188
PG18  19978.393360   7353.005197  16031.924136   -643.964600
PG19 -17552.253801   9783.346793 -17312.462258    521.123487
PG20 -11455.985658  10462.999786  21610.835824    371.946162
PG21   4343.294981 -15969.521779 -20098.149168    104.410317
PG22 -17781.837801  -1528.397394 -19157.846108    -48.450481
PG23  20683.687862  15390.889744  -6806.429368    291.542503
PG24   -456.564666  16519.794326 -21166.121352   -485.655800
PG25  16695.454346  20732.673694  -2451.473298    499.130383
PG26  17308.734101  -3797.000261  19729.921140    105.484118
PG27  12650.527313 -21700.223869   7650.265909    -32.642085
PG28  26071.835361  -4431.587118  -2490.664515   -362.543458
PG29   6284.662220  17834.508361  18550.227480   -585.485993
PG30 -25565.536539   -634.280856   7813.404289   -344.446359
PG31  22972.883627 -10433.413223   8680.522485   -226.113387
PG32  16162.745344  -3643.240314 -20500.823024   -607.555636
PJ02 -21660.357896  21361.740277 -24513.389285     -0.720335
PJ03 -30510.984091  27311.591149  14989.248201     -1.654707
PJ07 -25396.569958  33651.454418      2.770813      0.005076
PR01   7894.694206 -15062.763555 -19021.348486     93.737159
PR02   1339.173739 -24963.335124  -4853.277871    -24.015345
PR03  -6798.148720 -21241.427878  12366.858901    105.162325
PR04 -10573.712827  -6197.120459  22393.155182    248.758439
PR05  -9041.846834  12241.037788  20485.086311    135.695953
PR06    274.404641  25259.117695   3599.440432   -175.065642
PR07   6953.881786  20951.259319 -12790.335595     88.275335
PR08  10726.021322   5903.621001 -22327.350985     -6.294275
PR09   1220.126559  12691.915495 -22055.150405    201.981526
PR10  15386.674333  15019.347207 -13785.402408   -200.185387
PR11  23296.761514   9662.118888   3762.204251     15.705067
PR12  15897.210881  -2595.984116  19812.659703     43.344666
PR14 -17029.667461 -14895.991248  11821.770374     26.785050
PR15 -23277.131240  -8948.231053  -5364.420928     77.106110
PR16 -16009.929382   2369.551298 -19713.953517     28.036118
PR17  -6255.581658  -8599.266991 -23179.118877    111.328930
PR18 -18925.157054   2698.091045 -16897.232899    155.778304
PR19 -22655.463692  11079.801130  -3779.888333   -286.647502
PR20 -12157.867484  15369.034640  16352.833634   -117.283240
PR21   5710.187856   8853.829742  23228.152227   -123.891945
PR22  19716.398304  -2757.921341  15969.268251     74.452305
PR23  21956.604516 -12973.080157    658.968474   -129.055288
PR24  10814.809965 -16115.946191 -16553.072852    -66.797999
PR25   6471.858555   8865.147010  23030.130126    -99.689327
PR26  10661.125296   7340.030659 -21959.115032      8.321379
EOF
